{"type": "FeatureCollection", "features": [ {"type": "Feature", "properties": {"norad_id": 41019, "name": "GPS BIIF-11 (PRN 10)", "group": "gnss", "lat": 19.235074213151226, "lon": 51.42952749821093, "alt_km": 20442.453046386447, "timestamp": "2025-12-06T20:37:56.312932+00:00", "meta": {"OBJECT_NAME": "GPS BIIF-11 (PRN 10)", "OBJECT_ID": "2015-062A", "EPOCH": "2025-12-06T07:52:58.423872", "MEAN_MOTION": 2.0056703, "ECCENTRICITY": 0.01106332, "INCLINATION": 56.8275, "RA_OF_ASC_NODE": 38.2504, "ARG_OF_PERICENTER": 229.7544, "MEAN_ANOMALY": 129.3288, "EPHEMERIS_TYPE": 0, "CLASSIFICATION_TYPE": "U", "NORAD_CAT_ID": 41019, "ELEMENT_SET_NO": 999, "REV_AT_EPOCH": 7396, "BSTAR": 0, "MEAN_MOTION_DOT": -6.9e-07, "MEAN_MOTION_DDOT": 0}, "tle": {"line1": "1 41019U 15062A   25340.32845398 -.00000069  00000+0  00000+0 0  9999", "line2": "2 41019  56.8275  38.2504 0110633 229.7544 129.3288  2.00567030 73960"}}, "geometry": {"type": "Point", "coordinates": [51.42952749821093, 19.235074213151226]}}, {"type": "Feature", "properties": {"norad_id": 41028, "name": "GSAT-15 (GAGAN/PRN 139)", "group": "gnss", "lat": 0.027351681059810146, "lon": 118.84034488136248, "alt_km": 35792.36372291995, "timestamp": "2025-12-06T20:37:56.312944+00:00", "meta": {"OBJECT_NAME": "GSAT-15 (GAGAN/PRN 139)", "OBJECT_ID": "2015-065A", "EPOCH": "2025-12-06T12:23:56.856192", "MEAN_MOTION": 1.00271138, "ECCENTRICITY": 0.00029952, "INCLINATION": 0.0397, "RA_OF_ASC_NODE": 95.5688, "ARG_OF_PERICENTER": 141.6843, "MEAN_ANOMALY": 117.7928, "EPHEMERIS_TYPE": 0, "CLASSIFICATION_TYPE": "U", "NORAD_CAT_ID": 41028, "ELEMENT_SET_NO": 999, "REV_AT_EPOCH": 3686, "BSTAR": 0, "MEAN_MOTION_DOT": -2.51e-06, "MEAN_MOTION_DDOT": 0}, "tle": {"line1": "1 41028U 15065A   25340.51663028 -.00000251  00000+0  00000+0 0  9994", "line2": "2 41028   0.0397  95.5688 0002995 141.6843 117.7928  1.00271138 36860"}}, "geometry": {"type": "Point", "coordinates": [118.84034488136248, 0.027351681059810146]}}, {"type": "Feature", "properties": {"norad_id": 41174, "name": "GSAT0209 (GALILEO 12)", "group": "gnss", "lat": 35.52679964699779, "lon": -102.59967269918614, "alt_km": 23223.0003186945, "timestamp": "2025-12-06T20:37:56.312958+00:00", "meta": {"OBJECT_NAME": "GSAT0209 (GALILEO 12)", "OBJECT_ID": "2015-079A", "EPOCH": "2025-12-01T22:43:10.411392", "MEAN_MOTION": 1.70474306, "ECCENTRICITY": 0.0002352, "INCLINATION": 55.7062, "RA_OF_ASC_NODE": 106.6773, "ARG_OF_PERICENTER": 357.4206, "MEAN_ANOMALY": 2.5431, "EPHEMERIS_TYPE": 0, "CLASSIFICATION_TYPE": "U", "NORAD_CAT_ID": 41174, "ELEMENT_SET_NO": 999, "REV_AT_EPOCH": 6141, "BSTAR": 0, "MEAN_MOTION_DOT": 3.5e-07, "MEAN_MOTION_DDOT": 0}, "tle": {"line1": "1 41174U 15079A   25335.94664828  .00000035  00000+0  00000+0 0  9990", "line2": "2 41174  55.7062 106.6773 0002352 357.4206   2.5431  1.70474306 61412"}}, "geometry": {"type": "Point", "coordinates": [-102.59967269918614, 35.52679964699779]}}, {"type": "Feature", "properties": {"norad_id": 41175, "name": "GSAT0208 (GALILEO 11)", "group": "gnss", "lat": 0.11433786767215302, "lon": 106.60332247986526, "alt_km": 23216.792055678292, "timestamp": "2025-12-06T20:37:56.312970+00:00", "meta": {"OBJECT_NAME": "GSAT0208 (GALILEO 11)", "OBJECT_ID": "2015-079B", "EPOCH": "2025-12-05T16:28:14.683584", "MEAN_MOTION": 1.70474159, "ECCENTRICITY": 0.00019173, "INCLINATION": 55.707, "RA_OF_ASC_NODE": 106.5718, "ARG_OF_PERICENTER": 7.3332, "MEAN_ANOMALY": 352.6208, "EPHEMERIS_TYPE": 0, "CLASSIFICATION_TYPE": "U", "NORAD_CAT_ID": 41175, "ELEMENT_SET_NO": 999, "REV_AT_EPOCH": 6189, "BSTAR": 0, "MEAN_MOTION_DOT": 8e-08, "MEAN_MOTION_DDOT": 0}, "tle": {"line1": "1 41175U 15079B   25339.68628106  .00000008  00000+0  00000+0 0  9995", "line2": "2 41175  55.7070 106.5718 0001917   7.3332 352.6208  1.70474159 61896"}}, "geometry": {"type": "Point", "coordinates": [106.60332247986526, 0.11433786767215302]}}, {"type": "Feature", "properties": {"norad_id": 41241, "name": "IRNSS-1E", "group": "gnss", "lat": 31.48734303263236, "lon": 134.1383489084796, "alt_km": 35816.43914739751, "timestamp": "2025-12-06T20:37:56.312981+00:00", "meta": {"OBJECT_NAME": "IRNSS-1E", "OBJECT_ID": "2016-003A", "EPOCH": "2025-12-05T15:56:23.100864", "MEAN_MOTION": 1.00276837, "ECCENTRICITY": 0.00219002, "INCLINATION": 32.8101, "RA_OF_ASC_NODE": 62.5566, "ARG_OF_PERICENTER": 186.7894, "MEAN_ANOMALY": 176.2103, "EPHEMERIS_TYPE": 0, "CLASSIFICATION_TYPE": "U", "NORAD_CAT_ID": 41241, "ELEMENT_SET_NO": 999, "REV_AT_EPOCH": 3614, "BSTAR": 0, "MEAN_MOTION_DOT": -3.14e-06, "MEAN_MOTION_DDOT": 0}, "tle": {"line1": "1 41241U 16003A   25339.66415626 -.00000314  00000+0  00000+0 0  9997", "line2": "2 41241  32.8101  62.5566 0021900 186.7894 176.2103  1.00276837 36142"}}, "geometry": {"type": "Point", "coordinates": [134.1383489084796, 31.48734303263236]}}, {"type": "Feature", "properties": {"norad_id": 41328, "name": "GPS BIIF-12 (PRN 32)", "group": "gnss", "lat": -28.7866046340612, "lon": 74.82169097743343, "alt_km": 20145.402477962325, "timestamp": "2025-12-06T20:37:56.313037+00:00", "meta": {"OBJECT_NAME": "GPS BIIF-12 (PRN 32)", "OBJECT_ID": "2016-007A", "EPOCH": "2025-12-05T09:55:37.612128", "MEAN_MOTION": 2.00560998, "ECCENTRICITY": 0.00917952, "INCLINATION": 55.402, "RA_OF_ASC_NODE": 97.1478, "ARG_OF_PERICENTER": 243.3887, "MEAN_ANOMALY": 115.6411, "EPHEMERIS_TYPE": 0, "CLASSIFICATION_TYPE": "U", "NORAD_CAT_ID": 41328, "ELEMENT_SET_NO": 999, "REV_AT_EPOCH": 7195, "BSTAR": 0, "MEAN_MOTION_DOT": -1.1e-07, "MEAN_MOTION_DDOT": 0}, "tle": {"line1": "1 41328U 16007A   25339.41362977 -.00000011  00000+0  00000+0 0  9994", "line2": "2 41328  55.4020  97.1478 0091795 243.3887 115.6411  2.00560998 71958"}}, "geometry": {"type": "Point", "coordinates": [74.82169097743343, -28.7866046340612]}}, {"type": "Feature", "properties": {"norad_id": 41330, "name": "COSMOS 2514 (751)", "group": "gnss", "lat": -19.865762617944903, "lon": -50.05142685145966, "alt_km": 19147.57866269871, "timestamp": "2025-12-06T20:37:56.313052+00:00", "meta": {"OBJECT_NAME": "COSMOS 2514 (751)", "OBJECT_ID": "2016-008A", "EPOCH": "2025-12-06T10:03:33.651936", "MEAN_MOTION": 2.13102537, "ECCENTRICITY": 0.00123458, "INCLINATION": 65.1374, "RA_OF_ASC_NODE": 319.6204, "ARG_OF_PERICENTER": 219.9856, "MEAN_ANOMALY": 139.9172, "EPHEMERIS_TYPE": 0, "CLASSIFICATION_TYPE": "U", "NORAD_CAT_ID": 41330, "ELEMENT_SET_NO": 999, "REV_AT_EPOCH": 7651, "BSTAR": 0, "MEAN_MOTION_DOT": -4.9e-07, "MEAN_MOTION_DDOT": 0}, "tle": {"line1": "1 41330U 16008A   25340.41913949 -.00000049  00000+0  00000+0 0  9992", "line2": "2 41330  65.1374 319.6204 0012345 219.9856 139.9172  2.13102537 76514"}}, "geometry": {"type": "Point", "coordinates": [-50.05142685145966, -19.865762617944903]}}, {"type": "Feature", "properties": {"norad_id": 41384, "name": "IRNSS-1F", "group": "gnss", "lat": -3.3224770725273425, "lon": 58.022154791660604, "alt_km": 35856.25786821502, "timestamp": "2025-12-06T20:37:56.313067+00:00", "meta": {"OBJECT_NAME": "IRNSS-1F", "OBJECT_ID": "2016-015A", "EPOCH": "2025-12-06T13:49:11.191872", "MEAN_MOTION": 1.00269273, "ECCENTRICITY": 0.00224242, "INCLINATION": 4.865, "RA_OF_ASC_NODE": 101.4524, "ARG_OF_PERICENTER": 179.8688, "MEAN_ANOMALY": 33.9594, "EPHEMERIS_TYPE": 0, "CLASSIFICATION_TYPE": "U", "NORAD_CAT_ID": 41384, "ELEMENT_SET_NO": 999, "REV_AT_EPOCH": 3573, "BSTAR": 0, "MEAN_MOTION_DOT": 1.63e-06, "MEAN_MOTION_DDOT": 0}, "tle": {"line1": "1 41384U 16015A   25340.57582398  .00000163  00000+0  00000+0 0  9992", "line2": "2 41384   4.8650 101.4524 0022424 179.8688  33.9594  1.00269273 35734"}}, "geometry": {"type": "Point", "coordinates": [58.022154791660604, -3.3224770725273425]}}, {"type": "Feature", "properties": {"norad_id": 41434, "name": "BEIDOU-2 IGSO-6 (C13)", "group": "gnss", "lat": 57.40983422920869, "lon": 104.68414042929845, "alt_km": 36010.70873459532, "timestamp": "2025-12-06T20:37:56.313079+00:00", "meta": {"OBJECT_NAME": "BEIDOU-2 IGSO-6 (C13)", "OBJECT_ID": "2016-021A", "EPOCH": "2025-12-01T15:57:35.287200", "MEAN_MOTION": 1.00256562, "ECCENTRICITY": 0.00591323, "INCLINATION": 59.9483, "RA_OF_ASC_NODE": 40.0119, "ARG_OF_PERICENTER": 231.2834, "MEAN_ANOMALY": 130.8807, "EPHEMERIS_TYPE": 0, "CLASSIFICATION_TYPE": "U", "NORAD_CAT_ID": 41434, "ELEMENT_SET_NO": 999, "REV_AT_EPOCH": 3550, "BSTAR": 0, "MEAN_MOTION_DOT": -1.55e-06, "MEAN_MOTION_DDOT": 0}, "tle": {"line1": "1 41434U 16021A   25335.66499175 -.00000155  00000+0  00000+0 0  9991", "line2": "2 41434  59.9483  40.0119 0059132 231.2834 130.8807  1.00256562 35501"}}, "geometry": {"type": "Point", "coordinates": [104.68414042929845, 57.40983422920869]}}, {"type": "Feature", "properties": {"norad_id": 41469, "name": "IRNSS-1G", "group": "gnss", "lat": 3.751614383869838, "lon": 154.74984317926626, "alt_km": 35786.122157992206, "timestamp": "2025-12-06T20:37:56.313093+00:00", "meta": {"OBJECT_NAME": "IRNSS-1G", "OBJECT_ID": "2016-027A", "EPOCH": "2025-12-06T09:30:51.801696", "MEAN_MOTION": 1.002524, "ECCENTRICITY": 0.00046445, "INCLINATION": 4.7172, "RA_OF_ASC_NODE": 102.2625, "ARG_OF_PERICENTER": 337.221, "MEAN_ANOMALY": 268.1179, "EPHEMERIS_TYPE": 0, "CLASSIFICATION_TYPE": "U", "NORAD_CAT_ID": 41469, "ELEMENT_SET_NO": 999, "REV_AT_EPOCH": 3524, "BSTAR": 0, "MEAN_MOTION_DOT": -3.31e-06, "MEAN_MOTION_DDOT": 0}, "tle": {"line1": "1 41469U 16027A   25340.39643289 -.00000331  00000+0  00000+0 0  9994", "line2": "2 41469   4.7172 102.2625 0004644 337.2210 268.1179  1.00252400 35243"}}, "geometry": {"type": "Point", "coordinates": [154.74984317926626, 3.751614383869838]}}]}